IRIDIUM 136             
1 42962U 17061H   24288.49993622  .00000061  00000+0  14558-4 0  9999
2 42962  86.3910 280.4307 0002157  93.6284 266.5158 14.34217524367308
